{
  "type": "FeatureCollection",
  "features": [
    {
      "type": "Feature",
      "properties": {
        "norad_id": 31433,
        "name": "FENGYUN 1C DEB",
        "group": "fengyun-1c-debris",
        "lat": -26.296470777976687,
        "lon": 56.86876276400669,
        "alt_km": 875.2662930595279,
        "timestamp": "2025-12-03T04:52:29.919545+00:00",
        "meta_object_name": "FENGYUN 1C DEB",
        "meta_object_id": "1999-025BTV",
        "meta_epoch": "2025-12-02T16:23:31.467840",
        "meta_mean_motion": 14.25236284,
        "meta_eccentricity": 0.01000588,
        "meta_inclination": 98.4106,
        "meta_ra_of_asc_node": 240.5627,
        "meta_arg_of_pericenter": 58.2485,
        "meta_mean_anomaly": 0.52,
        "meta_ephemeris_type": 0,
        "meta_classification_type": "U",
        "meta_norad_cat_id": 31433,
        "meta_element_set_no": 999,
        "meta_rev_at_epoch": 95409,
        "meta_bstar": 0.0029974543,
        "meta_mean_motion_dot": 7.392e-05,
        "meta_mean_motion_ddot": 0,
        "tle_line1": "1 31433U 99025BTV 25336.68300310  .00007392  00000+0  29975-2 0  9993",
        "tle_line2": "2 31433  98.4106 240.5627 0100058  58.2485   0.5200 14.25236284954097"
      },
      "geometry": {
        "type": "Point",
        "coordinates": [
          56.86876276400669,
          -26.296470777976687
        ]
      }
    },
    {
      "type": "Feature",
      "properties": {
        "norad_id": 31435,
        "name": "FENGYUN 1C DEB",
        "group": "fengyun-1c-debris",
        "lat": 38.64731217286696,
        "lon": 140.97060005489166,
        "alt_km": 815.2938675055557,
        "timestamp": "2025-12-03T04:52:29.919555+00:00",
        "meta_object_name": "FENGYUN 1C DEB",
        "meta_object_id": "1999-025BTX",
        "meta_epoch": "2025-12-02T05:33:28.306368",
        "meta_mean_motion": 14.53389981,
        "meta_eccentricity": 0.0148655,
        "meta_inclination": 99.0365,
        "meta_ra_of_asc_node": 147.2344,
        "meta_arg_of_pericenter": 211.7479,
        "meta_mean_anomaly": 147.4687,
        "meta_ephemeris_type": 0,
        "meta_classification_type": "U",
        "meta_norad_cat_id": 31435,
        "meta_element_set_no": 999,
        "meta_rev_at_epoch": 98220,
        "meta_bstar": 0.00039273,
        "meta_mean_motion_dot": 1.83e-05,
        "meta_mean_motion_ddot": 0,
        "tle_line1": "1 31435U 99025BTX 25336.23157762  .00001830  00000+0  39273-3 0  9991",
        "tle_line2": "2 31435  99.0365 147.2344 0148655 211.7479 147.4687 14.53389981982204"
      },
      "geometry": {
        "type": "Point",
        "coordinates": [
          140.97060005489166,
          38.64731217286696
        ]
      }
    },
    {
      "type": "Feature",
      "properties": {
        "norad_id": 31436,
        "name": "FENGYUN 1C DEB",
        "group": "fengyun-1c-debris",
        "lat": 75.85481702408069,
        "lon": 150.58032218633292,
        "alt_km": 615.7851184599658,
        "timestamp": "2025-12-03T04:52:29.919581+00:00",
        "meta_object_name": "FENGYUN 1C DEB",
        "meta_object_id": "1999-025BTY",
        "meta_epoch": "2025-12-02T01:50:22.985952",
        "meta_mean_motion": 14.919619,
        "meta_eccentricity": 0.00468563,
        "meta_inclination": 98.881,
        "meta_ra_of_asc_node": 187.6598,
        "meta_arg_of_pericenter": 277.0104,
        "meta_mean_anomaly": 234.8513,
        "meta_ephemeris_type": 0,
        "meta_classification_type": "U",
        "meta_norad_cat_id": 31436,
        "meta_element_set_no": 999,
        "meta_rev_at_epoch": 96717,
        "meta_bstar": 0.0055470189,
        "meta_mean_motion_dot": 0.00057742,
        "meta_mean_motion_ddot": 0,
        "tle_line1": "1 31436U 99025BTY 25336.07665493  .00057742  00000+0  55470-2 0  9998",
        "tle_line2": "2 31436  98.8810 187.6598 0046856 277.0104 234.8513 14.91961900967173"
      },
      "geometry": {
        "type": "Point",
        "coordinates": [
          150.58032218633292,
          75.85481702408069
        ]
      }
    },
    {
      "type": "Feature",
      "properties": {
        "norad_id": 31437,
        "name": "FENGYUN 1C DEB",
        "group": "fengyun-1c-debris",
        "lat": -66.57136586118617,
        "lon": -143.21313035911763,
        "alt_km": 748.8609662856361,
        "timestamp": "2025-12-03T04:52:29.919594+00:00",
        "meta_object_name": "FENGYUN 1C DEB",
        "meta_object_id": "1999-025BTZ",
        "meta_epoch": "2025-12-02T17:44:11.582016",
        "meta_mean_motion": 14.42260081,
        "meta_eccentricity": 0.0014706,
        "meta_inclination": 98.866,
        "meta_ra_of_asc_node": 57.4178,
        "meta_arg_of_pericenter": 276.3981,
        "meta_mean_anomaly": 83.5532,
        "meta_ephemeris_type": 0,
        "meta_classification_type": "U",
        "meta_norad_cat_id": 31437,
        "meta_element_set_no": 999,
        "meta_rev_at_epoch": 96366,
        "meta_bstar": 0.0030325,
        "meta_mean_motion_dot": 9.98e-05,
        "meta_mean_motion_ddot": 0,
        "tle_line1": "1 31437U 99025BTZ 25336.73902294  .00009980  00000+0  30325-2 0  9998",
        "tle_line2": "2 31437  98.8660  57.4178 0014706 276.3981  83.5532 14.42260081963667"
      },
      "geometry": {
        "type": "Point",
        "coordinates": [
          -143.21313035911763,
          -66.57136586118617
        ]
      }
    },
    {
      "type": "Feature",
      "properties": {
        "norad_id": 31439,
        "name": "FENGYUN 1C DEB",
        "group": "fengyun-1c-debris",
        "lat": -20.950479346116484,
        "lon": 160.08788262143668,
        "alt_km": 816.7126973461918,
        "timestamp": "2025-12-03T04:52:29.919604+00:00",
        "meta_object_name": "FENGYUN 1C DEB",
        "meta_object_id": "1999-025BUB",
        "meta_epoch": "2025-12-01T07:15:31.336128",
        "meta_mean_motion": 13.95544292,
        "meta_eccentricity": 0.0137549,
        "meta_inclination": 98.917,
        "meta_ra_of_asc_node": 341.6948,
        "meta_arg_of_pericenter": 193.1955,
        "meta_mean_anomaly": 183.8365,
        "meta_ephemeris_type": 0,
        "meta_classification_type": "U",
        "meta_norad_cat_id": 31439,
        "meta_element_set_no": 999,
        "meta_rev_at_epoch": 63073,
        "meta_bstar": 0.00089354,
        "meta_mean_motion_dot": 1.272e-05,
        "meta_mean_motion_ddot": 0,
        "tle_line1": "1 31439U 99025BUB 25335.30244602  .00001272  00000+0  89354-3 0  9997",
        "tle_line2": "2 31439  98.9170 341.6948 0137549 193.1955 183.8365 13.95544292630730"
      },
      "geometry": {
        "type": "Point",
        "coordinates": [
          160.08788262143668,
          -20.950479346116484
        ]
      }
    },
    {
      "type": "Feature",
      "properties": {
        "norad_id": 31440,
        "name": "FENGYUN 1C DEB",
        "group": "fengyun-1c-debris",
        "lat": 5.603044926375548,
        "lon": -114.08072336481591,
        "alt_km": 797.2200124822766,
        "timestamp": "2025-12-03T04:52:29.919615+00:00",
        "meta_object_name": "FENGYUN 1C DEB",
        "meta_object_id": "1999-025BUC",
        "meta_epoch": "2025-12-02T04:39:51.729408",
        "meta_mean_motion": 14.36510307,
        "meta_eccentricity": 0.00367739,
        "meta_inclination": 98.7469,
        "meta_ra_of_asc_node": 64.0297,
        "meta_arg_of_pericenter": 14.8999,
        "meta_mean_anomaly": 345.3261,
        "meta_ephemeris_type": 0,
        "meta_classification_type": "U",
        "meta_norad_cat_id": 31440,
        "meta_element_set_no": 999,
        "meta_rev_at_epoch": 96174,
        "meta_bstar": 0.0021635441,
        "meta_mean_motion_dot": 6.36e-05,
        "meta_mean_motion_ddot": 0,
        "tle_line1": "1 31440U 99025BUC 25336.19434872  .00006360  00000+0  21635-2 0  9997",
        "tle_line2": "2 31440  98.7469  64.0297 0036773  14.8999 345.3261 14.36510307961742"
      },
      "geometry": {
        "type": "Point",
        "coordinates": [
          -114.08072336481591,
          5.603044926375548
        ]
      }
    },
    {
      "type": "Feature",
      "properties": {
        "norad_id": 31441,
        "name": "FENGYUN 1C DEB",
        "group": "fengyun-1c-debris",
        "lat": -53.63709554919088,
        "lon": -148.52563528253933,
        "alt_km": 616.2449237721003,
        "timestamp": "2025-12-03T04:52:29.919625+00:00",
        "meta_object_name": "FENGYUN 1C DEB",
        "meta_object_id": "1999-025BUD",
        "meta_epoch": "2025-12-01T10:45:27.221472",
        "meta_mean_motion": 14.73818276,
        "meta_eccentricity": 0.01066902,
        "meta_inclination": 99.3136,
        "meta_ra_of_asc_node": 196.5817,
        "meta_arg_of_pericenter": 9.8212,
        "meta_mean_anomaly": 350.5043,
        "meta_ephemeris_type": 0,
        "meta_classification_type": "U",
        "meta_norad_cat_id": 31441,
        "meta_element_set_no": 999,
        "meta_rev_at_epoch": 63924,
        "meta_bstar": 0.0063062191,
        "meta_mean_motion_dot": 0.00045421,
        "meta_mean_motion_ddot": 0,
        "tle_line1": "1 31441U 99025BUD 25335.44823173  .00045421  00000+0  63062-2 0  9992",
        "tle_line2": "2 31441  99.3136 196.5817 0106690   9.8212 350.5043 14.73818276639248"
      },
      "geometry": {
        "type": "Point",
        "coordinates": [
          -148.52563528253933,
          -53.63709554919088
        ]
      }
    }
  ]
}